{
  "type": "FeatureCollection",
  "features": [
    {
      "type": "Feature",
      "properties": {
        "norad_id": 56564,
        "name": "BEIDOU-3 G4 (C62)",
        "group": "beidou",
        "lat": 0.8070411689920366,
        "lon": 21.355930786803352,
        "alt_km": 35795.99981658754,
        "timestamp": "2025-12-17T09:00:17.413878+00:00",
        "meta_object_name": "BEIDOU-3 G4 (C62)",
        "meta_object_id": "2023-066A",
        "meta_epoch": "2025-12-16T19:15:19.678176",
        "meta_mean_motion": 1.00271768,
        "meta_eccentricity": 0.00027882,
        "meta_inclination": 0.8061,
        "meta_ra_of_asc_node": 302.3763,
        "meta_arg_of_pericenter": 227.8165,
        "meta_mean_anomaly": 4.39,
        "meta_ephemeris_type": 0,
        "meta_classification_type": "U",
        "meta_norad_cat_id": 56564,
        "meta_element_set_no": 999,
        "meta_rev_at_epoch": 956,
        "meta_bstar": 0,
        "meta_mean_motion_dot": -8.6e-07,
        "meta_mean_motion_ddot": 0,
        "tle_line1": "1 56564U 23066A   25350.80231109 -.00000086  00000+0  00000+0 0  9995",
        "tle_line2": "2 56564   0.8061 302.3763 0002788 227.8165   4.3900  1.00271768  9561"
      },
      "geometry": {
        "type": "Point",
        "coordinates": [
          21.355930786803352,
          0.8070411689920366
        ]
      }
    },
    {
      "type": "Feature",
      "properties": {
        "norad_id": 58654,
        "name": "BEIDOU-3 M28 (C50)",
        "group": "beidou",
        "lat": 50.88606446928232,
        "lon": 125.78125693997056,
        "alt_km": 21528.770065451594,
        "timestamp": "2025-12-17T09:00:17.413890+00:00",
        "meta_object_name": "BEIDOU-3 M28 (C50)",
        "meta_object_id": "2023-207A",
        "meta_epoch": "2025-12-15T15:50:05.112096",
        "meta_mean_motion": 1.8622982,
        "meta_eccentricity": 0.00025263,
        "meta_inclination": 55.587,
        "meta_ra_of_asc_node": 68.5025,
        "meta_arg_of_pericenter": 270.8998,
        "meta_mean_anomaly": 89.0909,
        "meta_ephemeris_type": 0,
        "meta_classification_type": "U",
        "meta_norad_cat_id": 58654,
        "meta_element_set_no": 999,
        "meta_rev_at_epoch": 1342,
        "meta_bstar": 0,
        "meta_mean_motion_dot": -8.4e-07,
        "meta_mean_motion_ddot": 0,
        "tle_line1": "1 58654U 23207A   25349.65978139 -.00000084  00000+0  00000+0 0  9994",
        "tle_line2": "2 58654  55.5870  68.5025 0002526 270.8998  89.0909  1.86229820 13427"
      },
      "geometry": {
        "type": "Point",
        "coordinates": [
          125.78125693997056,
          50.88606446928232
        ]
      }
    },
    {
      "type": "Feature",
      "properties": {
        "norad_id": 58655,
        "name": "BEIDOU-3 M26 (C48)",
        "group": "beidou",
        "lat": -21.013074288891417,
        "lon": -96.31676986341091,
        "alt_km": 21523.971085210138,
        "timestamp": "2025-12-17T09:00:17.413901+00:00",
        "meta_object_name": "BEIDOU-3 M26 (C48)",
        "meta_object_id": "2023-207B",
        "meta_epoch": "2025-12-15T23:51:52.176960",
        "meta_mean_motion": 1.86231301,
        "meta_eccentricity": 0.00039507,
        "meta_inclination": 55.5893,
        "meta_ra_of_asc_node": 68.4775,
        "meta_arg_of_pericenter": 256.9,
        "meta_mean_anomaly": 103.0764,
        "meta_ephemeris_type": 0,
        "meta_classification_type": "U",
        "meta_norad_cat_id": 58655,
        "meta_element_set_no": 999,
        "meta_rev_at_epoch": 1341,
        "meta_bstar": 0,
        "meta_mean_motion_dot": -8.2e-07,
        "meta_mean_motion_ddot": 0,
        "tle_line1": "1 58655U 23207B   25349.99435390 -.00000082  00000+0  00000+0 0  9997",
        "tle_line2": "2 58655  55.5893  68.4775 0003950 256.9000 103.0764  1.86231301 13417"
      },
      "geometry": {
        "type": "Point",
        "coordinates": [
          -96.31676986341091,
          -21.013074288891417
        ]
      }
    },
    {
      "type": "Feature",
      "properties": {
        "norad_id": 61186,
        "name": "BEIDOU-3 M25 (C47)",
        "group": "beidou",
        "lat": -29.617918194050603,
        "lon": -75.2549921304551,
        "alt_km": 21518.01194979683,
        "timestamp": "2025-12-17T09:00:17.413912+00:00",
        "meta_object_name": "BEIDOU-3 M25 (C47)",
        "meta_object_id": "2024-168B",
        "meta_epoch": "2025-12-16T08:41:42.146304",
        "meta_mean_motion": 1.86230282,
        "meta_eccentricity": 0.00054361,
        "meta_inclination": 54.6387,
        "meta_ra_of_asc_node": 308.5944,
        "meta_arg_of_pericenter": 298.6165,
        "meta_mean_anomaly": 64.9369,
        "meta_ephemeris_type": 0,
        "meta_classification_type": "U",
        "meta_norad_cat_id": 61186,
        "meta_element_set_no": 999,
        "meta_rev_at_epoch": 838,
        "meta_bstar": 0,
        "meta_mean_motion_dot": -9.6e-07,
        "meta_mean_motion_ddot": 0,
        "tle_line1": "1 61186U 24168B   25350.36229336 -.00000096  00000+0  00000+0 0  9996",
        "tle_line2": "2 61186  54.6387 308.5944 0005436 298.6165  64.9369  1.86230282  8383"
      },
      "geometry": {
        "type": "Point",
        "coordinates": [
          -75.2549921304551,
          -29.617918194050603
        ]
      }
    },
    {
      "type": "Feature",
      "properties": {
        "norad_id": 61187,
        "name": "BEIDOU-3 M27 (C49)",
        "group": "beidou",
        "lat": 53.92039766475911,
        "lon": 51.614112640759046,
        "alt_km": 21525.17755462177,
        "timestamp": "2025-12-17T09:00:17.413923+00:00",
        "meta_object_name": "BEIDOU-3 M27 (C49)",
        "meta_object_id": "2024-168C",
        "meta_epoch": "2025-12-16T16:40:41.983104",
        "meta_mean_motion": 1.86230434,
        "meta_eccentricity": 0.00024841,
        "meta_inclination": 54.6339,
        "meta_ra_of_asc_node": 308.5665,
        "meta_arg_of_pericenter": 338.791,
        "meta_mean_anomaly": 22.7228,
        "meta_ephemeris_type": 0,
        "meta_classification_type": "U",
        "meta_norad_cat_id": 61187,
        "meta_element_set_no": 999,
        "meta_rev_at_epoch": 586,
        "meta_bstar": 0,
        "meta_mean_motion_dot": -9.5e-07,
        "meta_mean_motion_ddot": 0,
        "tle_line1": "1 61187U 24168C   25350.69493036 -.00000095  00000+0  00000+0 0  9992",
        "tle_line2": "2 61187  54.6339 308.5665 0002484 338.7910  22.7228  1.86230434  5860"
      },
      "geometry": {
        "type": "Point",
        "coordinates": [
          51.614112640759046,
          53.92039766475911
        ]
      }
    }
  ]
}